SARSAT 7 (NOAA 15)      
1 25338U 98030A   22295.54633538  .00000138  00000+0  75992-4 0  9995
2 25338  98.6344 323.3638 0009318 288.8920  71.1250 14.26185659271130
GPS BIIR-08             
1 27663U 03005A   22294.93981128 -.00000005  00000+0  00000+0 0  9996
2 27663  55.4324 268.0354 0127420  41.2924 342.0117  2.00557159144556
GPS BIIR-11             
1 28190U 04009A   22295.20875084 -.00000038  00000+0  00000+0 0  9997
2 28190  55.9233 329.0377 0088837 126.9213 245.0280  2.00557609136193
GPS BIIR-13             
1 28474U 04045A   22295.47061252 -.00000084  00000+0  00000+0 0  9996
2 28474  55.3893  18.3604 0203326 280.2662 141.8986  2.00421321131685
SARSAT 10 (NOAA 18)     
1 28654U 05018A   22295.54498878  .00000184  00000+0  12309-3 0  9992
2 28654  98.9377   5.8108 0013677 335.9413  24.1118 14.12794081898014
GPS BIIR-14M            
1 28874U 05038A   22295.34358378 -.00000034  00000+0  00000+0 0  9992
2 28874  55.9844 326.4716 0140559 275.7430 221.6437  2.00567801125087
METEOSAT-9 (MSG-2)      
1 28912U 05049B   22295.50650325  .00000140  00000+0  00000+0 0  9999
2 28912   6.3018  65.4322 0001731 190.5764   2.9300  1.00271032 61667
GOES 13                 
1 29155U 06018A   22295.50972966  .00000046  00000+0  00000+0 0  9999
2 29155   0.8959  94.7691 0006579 128.8374  52.2705  1.00270452 30006
GPS BIIR-16M            
1 29601U 06052A   22295.21977182 -.00000005  00000+0  00000+0 0  9992
2 29601  55.4429 266.9676 0083224  75.0194 285.8866  2.00557879116651
GPS BIIR-17M            
1 32260U 07047A   22295.02626115  .00000085  00000+0  00000+0 0  9995
2 32260  53.3487 135.2967 0144659  65.4532 296.1384  2.00568120110056
GPS BIIR-18M            
1 32384U 07062A   22295.57495965 -.00000034  00000+0  00000+0 0  9991
2 32384  56.1072 327.2404 0020302 147.2020  16.7023  2.00569044108769
SARSAT 12 (NOAA 19)     
1 33591U 09005A   22295.56076522  .00000166  00000+0  11455-3 0  9999
2 33591  99.1358 332.2980 0013831 187.3499 172.7471 14.12626031706134
GOES 14                 
1 35491U 09033A   22295.62025122 -.00000086  00000+0  00000+0 0  9990
2 35491   0.3064 266.2366 0018202 311.5153 292.3057  1.00273141 48784
GOES 15                 
1 36411U 10008A   22295.59188958  .00000063  00000+0  00000+0 0  9994
2 36411   0.2661 278.9198 0003933 262.6251 294.1486  1.00270838 46281
GPS BIIF-2              
1 37753U 11036A   22295.14051804 -.00000082  00000+0  00000+0 0  9998
2 37753  56.6569  23.7793 0118260  53.4406 306.0976  2.00566127 82511
GSAT0101 (GALILEO-PFM)  
1 37846U 11060A   22293.78129067 -.00000086  00000+0  00000+0 0  9997
2 37846  57.0372  17.9357 0000471  25.2307 334.8049  1.70475018 68353
GSAT0102 (GALILEO-FM2)  
1 37847U 11060B   22295.46229263 -.00000081  00000+0  00000+0 0  9999
2 37847  57.0385  17.8898 0002177 299.2603  59.2658  1.70475368 68389
LUCH 5A                 
1 37951U 11074B   22295.66021650 -.00000033  00000+0  00000+0 0  9999
2 37951   5.3318  95.2658 0003314  97.5526 242.9959  1.00268905 39819
METEOSAT-10 (MSG-3)     
1 38552U 12035B   22295.28405500  .00000070  00000+0  00000+0 0  9993
2 38552   1.7227  47.5839 0001210 158.0795 296.5790  1.00275880 37480
SARSAT 13 (METOP-B)     
1 38771U 12049A   22295.62558792  .00000094  00000+0  62920-4 0  9991
2 38771  98.7150 353.5451 0001415  68.7780  86.9232 14.21485002523794
GPS BIIF-3              
1 38833U 12053A   22295.12540839  .00000008  00000+0  00000+0 0  9994
2 38833  53.5207 198.1664 0130830  48.0754 313.0822  2.00563391 72688
GSAT0103 (GALILEO-FM3)  
1 38857U 12055A   22293.82047110  .00000071  00000+0  00000+0 0  9991
2 38857  55.1720 138.2513 0001863 239.7782 120.2995  1.70473841 62249
GSAT0104 (GALILEO-FM4)  
1 38858U 12055B   22293.20379710  .00000066  00000+0  00000+0 0  9992
2 38858  55.1719 138.2697 0001267 134.9627 225.1412  1.70474129 62231
GPS BIIF-4              
1 39166U 13023A   22294.98363477 -.00000031  00000+0  00000+0 0  9993
2 39166  55.6078 322.8088 0105207  38.1978 322.6040  2.00565379 69122
INSAT-3D                
1 39216U 13038B   22295.52201990 -.00000148  00000+0  00000+0 0  9996
2 39216   0.0953  93.8841 0002032 132.1943  74.8861  1.00271542 33724
GPS BIIF-5              
1 39533U 14008A   22294.98646268  .00000000  00000+0  00000+0 0  9992
2 39533  53.6126 203.6919 0060465 209.5002 150.1964  2.00560608 62929
LUCH 5V                 
1 39727U 14023A   22295.51633433 -.00000260  00000+0  00000+0 0  9993
2 39727   1.7970  76.6269 0003147 154.0344  80.9408  1.00271089 30983
GPS BIIF-6              
1 39741U 14026A   22295.26783736 -.00000082  00000+0  00000+0 0  9998
2 39741  56.6164  23.2999 0027250 304.5700  55.2034  2.00579571 61780
GPS BIIF-7              
1 40105U 14045A   22294.85418638  .00000084  00000+0  00000+0 0  9996
2 40105  54.7188 141.7567 0023850 111.6277 248.7206  2.00555922 59316
GSAT0201 (GALILEO 5)    
1 40128U 14050A   22294.33506020 -.00000054  00000+0  00000+0 0  9991
2 40128  50.1965 327.2655 1618549 128.6207 247.0385  1.85519460 55494
GSAT0202 (GALILEO 6)    
1 40129U 14050B   22295.13461494 -.00000052  00000+0  00000+0 0  9994
2 40129  50.2191 326.2977 1615705 129.4616 246.0077  1.85520103 55737
GPS BIIF-8              
1 40294U 14068A   22294.72155480  .00000026  00000+0  00000+0 0  9995
2 40294  55.9157  82.9519 0042629  58.6452 301.7799  2.00550337 58442
GLONASS-K 2             
1 40315U 14075A   22294.55114262 -.00000006  00000+0  00000+0 0  9990
2 40315  63.6735 236.7559 0018827 211.6777  13.1957  2.13101340 61412
GPS BIIF-9              
1 40534U 15013A   22294.86644414 -.00000011  00000+0  00000+0 0  9993
2 40534  53.6305 259.4560 0072355  20.3557 339.9119  2.00574355 55067
GSAT0203 (GALILEO 7)    
1 40544U 15017A   22295.32083455 -.00000082  00000+0  00000+0 0  9990
2 40544  56.8333  17.9098 0004179 234.4247 125.5727  1.70476339 46467
GSAT0204 (GALILEO 8)    
1 40545U 15017B   22294.98727441 -.00000083  00000+0  00000+0 0  9993
2 40545  56.8388  17.9317 0004278 220.3880 139.6158  1.70475802  9501
GPS BIIF-10             
1 40730U 15033A   22295.02378562 -.00000030  00000+0  00000+0 0  9991
2 40730  55.1033 321.5751 0076213   7.5509 352.6221  2.00571636 53236
METEOSAT-11 (MSG-4)     
1 40732U 15034A   22295.37827194  .00000007  00000+0  00000+0 0  9995
2 40732   0.5673  74.6482 0000403  91.3549   1.1229  1.00279850 26643
GSAT0205 (GALILEO 9)    
1 40889U 15045A   22294.16807721  .00000003  00000+0  00000+0 0  9996
2 40889  55.5490 258.4899 0004572 356.6337   3.3365  1.70473066 44254
GSAT0206 (GALILEO 10)   
1 40890U 15045B   22294.97541342  .00000002  00000+0  00000+0 0  9990
2 40890  55.5471 258.4633 0003390 335.8561  24.0982  1.70473082 44293
GPS BIIF-11             
1 41019U 15062A   22295.07417674  .00000025  00000+0  00000+0 0  9990
2 41019  55.9034  82.7835 0082119 217.6529 141.7786  2.00562576 51079
ELEKTRO-L 2             
1 41105U 15074A   22295.35111212 -.00000104  00000+0  00000+0 0  9998
2 41105   3.3022  86.6071 0002927 128.8550 287.2995  1.00272495 25144
GSAT0209 (GALILEO 12)   
1 41174U 15079A   22295.14942391  .00000082  00000+0  00000+0 0  9990
2 41174  55.1894 137.9192 0002142 343.0561  17.0369  1.70474426 42618
GSAT0208 (GALILEO 11)   
1 41175U 15079B   22293.60916543  .00000070  00000+0  00000+0 0  9997
2 41175  55.1864 137.9599 0001616 355.4629   4.6307  1.70474321 42421
GPS BIIF-12             
1 41328U 16007A   22295.16174545  .00000087  00000+0  00000+0 0  9998
2 41328  54.9327 142.4464 0063179 229.6560 129.8846  2.00564963 49085
GSAT0211 (GALILEO 14)   
1 41549U 16030A   22294.90110344  .00000003  00000+0  00000+0 0  9995
2 41549  55.6927 258.4118 0004745 317.0458  42.8876  1.70474600 39923
GSAT0210 (GALILEO 13)   
1 41550U 16030B   22295.19368674  .00000002  00000+0  00000+0 0  9999
2 41550  55.6898 258.4054 0004388 289.8061  70.1160  1.70474526 39905
INSAT-3DR               
1 41752U 16054A   22295.52201990 -.00000070  00000+0  00000+0 0  9999
2 41752   0.1347  90.2335 0012800 174.3553  28.2924  1.00272363 22440
GSAT0207 (GALILEO 15)   
1 41859U 16069A   22293.09701956  .00000065  00000+0  00000+0 0  9993
2 41859  54.8493 138.1261 0001865 313.4346  46.6429  1.70473006 36624
GSAT0212 (GALILEO 16)   
1 41860U 16069B   22294.12360767  .00000073  00000+0  00000+0 0  9990
2 41860  54.8474 138.0949 0001824  21.6242 338.4807  1.70473078 36895
GSAT0213 (GALILEO 17)   
1 41861U 16069C   22294.48888786  .00000076  00000+0  00000+0 0  9999
2 41861  54.8498 138.0902 0001657 256.5324 103.5475  1.70473147 36760
GSAT0214 (GALILEO 18)   
1 41862U 16069D   22295.22264672  .00000081  00000+0  00000+0 0  9991
2 41862  54.8485 138.0642 0000722 256.0933 103.9991  1.70473061 36909
GOES 16                 
1 41866U 16071A   22295.44872122 -.00000240  00000+0  00000+0 0  9995
2 41866   0.0598 279.6539 0000811 339.3523 218.2234  1.00271121 21749
GSAT-17                 
1 42815U 17040B   22294.29661868 -.00000254  00000+0  00000+0 0  9997
2 42815   0.0627  84.4384 0006075 156.9018 348.6975  1.00277651 19401
GSAT0215 (GALILEO 19)   
1 43055U 17079A   22295.12572536  .00000002  00000+0  00000+0 0  9992
2 43055  55.6684 258.2362 0003785 285.5395  74.3882  1.70473804 30246
GSAT0216 (GALILEO 20)   
1 43056U 17079B   22294.83127708  .00000003  00000+0  00000+0 0  9998
2 43056  55.6688 258.2440 0005453 285.6826  74.2279  1.70473921 30252
GSAT0217 (GALILEO 21)   
1 43057U 17079C   22295.05154901  .00000002  00000+0  00000+0 0  9998
2 43057  55.6669 258.2376 0005045 297.0036  62.9147  1.70473879 30246
GSAT0218 (GALILEO 22)   
1 43058U 17079D   22295.27158264  .00000002  00000+0  00000+0 0  9999
2 43058  55.6668 258.2290 0005841 281.8080  78.0955  1.70473926 30276
GOES 17                 
1 43226U 18022A   22294.70674245  .00000104  00000+0  00000+0 0  9997
2 43226   0.0624 280.3802 0000425 326.0240 260.8437  1.00273082 17047
GSAT0221 (GALILEO 25)   
1 43564U 18060A   22294.58383797 -.00000084  00000+0  00000+0 0  9997
2 43564  57.2147  17.7776 0004059 254.5199 105.4704  1.70476245 26418
